43929,IRIDIUM 171,2019,100.4,860.0,+,86.39,Active,1,LEO,USA,USA,Commercial/Government,Communications,Falcon,1 43929U 19002H   24133.94021843  .00000339  00000+0  11383-3 0  9996,2 43929  86.3944 313.6115 0002017  95.8513 264.2912 14.34221180279273,14.3422118,0.0002017,LEO
43930,IRIDIUM 170,2019,97.81,860.0,+,86.61,Active,1,LEO,USA,USA,Commercial/Government,Communications,Falcon,1 43930U 19002J   24133.91686071  .00001265  00000+0  19663-3 0  9993,2 43930  86.6063 313.4471 0002273  88.7860 271.3617 14.72254470286665,14.7225447,0.0002273,LEO
43931,IRIDIUM 167,2019,100.4,860.0,+,86.39,Active,1,LEO,USA,USA,Commercial/Government,Communications,Falcon,1 43931U 19002K   24134.21294499  .00000352  00000+0  11874-3 0  9999,2 43931  86.3934 313.2913 0002138  91.3150 268.8291 14.34220118279314,14.34220118,0.0002138,LEO
56726,IRIDIUM 181,2023,99.75,-1.0,+,86.87,Active,0,LEO,USA,USA,Unknown,Unknown,Unknown,1 56726U 23068S   24134.17153144  .00000770  00000+0  22145-3 0  9995,2 56726  86.8664   5.3308 0002112  91.3919 268.7525 14.43597841 52089,14.43597841,0.0002112,LEO
56727,IRIDIUM 177,2023,97.28,-1.0,+,86.2,Active,0,LEO,USA,USA,Unknown,Unknown,Unknown,1 56727U 23068T   24133.93714800  .00000206  00000+0  23616-4 0  9990,2 56727  86.1960 332.1066 0002157 100.3467 259.7997 14.80235238 53165,14.80235238,0.0002157,LEO
56728,IRIDIUM 174,2023,97.28,-1.0,+,86.2,Active,0,LEO,USA,USA,Unknown,Unknown,Unknown,1 56728U 23068U   24134.06690972  .00000026  00000+0 -87802-7 0  9990,2 56728  86.1969 332.1460 0002285  84.5937 275.5544 14.80235403 53180,14.80235403,0.0002285,LEO
56729,IRIDIUM 178,2023,97.28,-1.0,+,86.58,Active,0,LEO,USA,USA,Unknown,Unknown,Unknown,1 56729U 23068V   24134.53469112  .00003126  00000+0  40728-3 0  9998,2 56729  86.5790 347.7431 0002827  77.0916 283.0622 14.80290324 53255,14.80290324,0.0002827,LEO
56730,IRIDIUM 179,2023,97.28,-1.0,+,86.68,Active,0,LEO,USA,USA,Unknown,Unknown,Unknown,1 56730U 23068W   24133.85327389  .00004548  00000+0  59466-3 0  9991,2 56730  86.6804 351.7225 0002796  86.5046 273.6495 14.80252411 53151,14.80252411,0.0002796,LEO
